{
  "norad_id": 63483,
  "name": "STARLINK-33688",
  "history": [
    {
      "epoch": "2026-03-28T13:55:39.749088Z",
      "apogee_km": 484.03125682022346,
      "perigee_km": 481.99486748177605,
      "latitude_deg": -1.592036349776194e-05,
      "longitude_deg": 118.34193537558677,
      "height_km": 482.7001194765134,
      "semi_major_axis_km": 6861.1500621509995,
      "eccentricity": 0.0001484,
      "inclination_deg": 43.0024,
      "raan_deg": 153.2563,
      "arg_perigee_deg": 275.0705,
      "mean_anomaly_deg": 84.9977,
      "mean_motion_rev_day": 15.27592034
    },
    {
      "epoch": "2026-03-29T05:37:13.543392Z",
      "apogee_km": 483.8122396077533,
      "perigee_km": 482.1395002900608,
      "latitude_deg": -4.950300142632369e-06,
      "longitude_deg": -121.39023970771208,
      "height_km": 483.2386143841125,
      "semi_major_axis_km": 6861.112869948907,
      "eccentricity": 0.0001219,
      "inclination_deg": 42.9995,
      "raan_deg": 149.5594,
      "arg_perigee_deg": 234.4296,
      "mean_anomaly_deg": 125.6442,
      "mean_motion_rev_day": 15.27604455
    },
    {
      "epoch": "2026-03-30T03:35:25.218816Z",
      "apogee_km": 483.412076773624,
      "perigee_km": 482.6093224927681,
      "latitude_deg": 1.916391309816307e-05,
      "longitude_deg": -97.00713316639563,
      "height_km": 483.18008526294983,
      "semi_major_axis_km": 6861.147699633196,
      "eccentricity": 5.85e-05,
      "inclination_deg": 43.0013,
      "raan_deg": 144.3934,
      "arg_perigee_deg": 191.1673,
      "mean_anomaly_deg": 168.9166,
      "mean_motion_rev_day": 15.27592823
    }
  ]
}